start=new Date('2023-06-26T00:00:00.000Z').valueOf();
sats=[{"TLE_LINE1":"1 48671U 21044AK  23176.38806332  .00010145  00000-0  69870-3 0  9993","NORAD_CAT_ID":"48671","GP_ID":"234542125","SEMIMAJOR_AXIS":"6925.301","TIME_SYSTEM":"UTC","OBJECT_ID":"2021-044AK","FILE":"3942359","MEAN_ANOMALY":"277.3117","ARG_OF_PERICENTER":"82.8006","DECAY_DATE":null,"PERIAPSIS":"546.348","LAUNCH_DATE":"2021-05-26","RA_OF_ASC_NODE":"228.2764","ELEMENT_SET_NO":"999","MEAN_MOTION_DDOT":"0.0000000000000","RCS_SIZE":"LARGE","CLASSIFICATION_TYPE":"U","BSTAR":"0.00069870000000","INCLINATION":"53.0525","REV_AT_EPOCH":"11572","OBJECT_NAME":"STARLINK-2745","MEAN_ELEMENT_THEORY":"SGP4","EPOCH":"2023-06-25T09:18:48.670848","TLE_LINE2":"2 48671  53.0525 228.2764 0001182  82.8006 277.3117 15.06415370115721","OBJECT_TYPE":"PAYLOAD","APOAPSIS":"547.985","CENTER_NAME":"EARTH","PERIOD":"95.591","REF_FRAME":"TEME","MEAN_MOTION_DOT":"0.00010145","SITE":"AFETR","ECCENTRICITY":"0.00011820","COUNTRY_CODE":"US","EPHEMERIS_TYPE":"0","MEAN_MOTION":"15.06415370"},{"GP_ID":"234542413","NORAD_CAT_ID":"48672","TLE_LINE1":"1 48672U 21044AL  23176.38438318  .00018165  00000-0  12345-2 0  9993","FILE":"3942350","OBJECT_ID":"2021-044AL","TIME_SYSTEM":"UTC","SEMIMAJOR_AXIS":"6925.282","LAUNCH_DATE":"2021-05-26","ARG_OF_PERICENTER":"79.6471","DECAY_DATE":null,"PERIAPSIS":"546.308","MEAN_ANOMALY":"280.4654","MEAN_MOTION_DDOT":"0.0000000000000","ELEMENT_SET_NO":"999","RA_OF_ASC_NODE":"228.2944","CLASSIFICATION_TYPE":"U","RCS_SIZE":"LARGE","REV_AT_EPOCH":"11578","OBJECT_NAME":"STARLINK-2705","INCLINATION":"53.0530","BSTAR":"0.00123450000000","APOAPSIS":"547.985","OBJECT_TYPE":"PAYLOAD","TLE_LINE2":"2 48672  53.0530 228.2944 0001211  79.6471 280.4654 15.06421820115785","MEAN_ELEMENT_THEORY":"SGP4","EPOCH":"2023-06-25T09:13:30.706752","EPHEMERIS_TYPE":"0","MEAN_MOTION":"15.06421820","ECCENTRICITY":"0.00012110","SITE":"AFETR","COUNTRY_CODE":"US","PERIOD":"95.591","REF_FRAME":"TEME","MEAN_MOTION_DOT":"0.00018165","CENTER_NAME":"EARTH"},{"SEMIMAJOR_AXIS":"6925.269","TIME_SYSTEM":"UTC","OBJECT_ID":"2021-044AM","FILE":"3942352","TLE_LINE1":"1 48673U 21044AM  23176.38068969  .00016440  00000-0  11192-2 0  9998","NORAD_CAT_ID":"48673","GP_ID":"234542441","RA_OF_ASC_NODE":"228.3116","ELEMENT_SET_NO":"999","MEAN_MOTION_DDOT":"0.0000000000000","MEAN_ANOMALY":"281.5951","DECAY_DATE":null,"PERIAPSIS":"546.299","ARG_OF_PERICENTER":"78.5174","LAUNCH_DATE":"2021-05-26","INCLINATION":"53.0524","BSTAR":"0.00111920000000","OBJECT_NAME":"STARLINK-2711","REV_AT_EPOCH":"11578","RCS_SIZE":"LARGE","CLASSIFICATION_TYPE":"U","CENTER_NAME":"EARTH","REF_FRAME":"TEME","MEAN_MOTION_DOT":"0.00016440","PERIOD":"95.590","COUNTRY_CODE":"US","ECCENTRICITY":"0.00012060","SITE":"AFETR","MEAN_MOTION":"15.06425888","EPHEMERIS_TYPE":"0","EPOCH":"2023-06-25T09:08:11.589216","MEAN_ELEMENT_THEORY":"SGP4","OBJECT_TYPE":"PAYLOAD","TLE_LINE2":"2 48673  53.0524 228.3116 0001206  78.5174 281.5951 15.06425888115783","APOAPSIS":"547.969"},{"TLE_LINE2":"2 48674  53.0528 228.0217 0001093  70.0039 290.1068 15.06423507115790","OBJECT_TYPE":"PAYLOAD","APOAPSIS":"547.898","EPOCH":"2023-06-25T10:37:03.833472","MEAN_ELEMENT_THEORY":"SGP4","COUNTRY_CODE":"US","SITE":"AFETR","ECCENTRICITY":"0.00010930","MEAN_MOTION":"15.06423507","EPHEMERIS_TYPE":"0","CENTER_NAME":"EARTH","REF_FRAME":"TEME","MEAN_MOTION_DOT":"0.00014368","PERIOD":"95.591","CLASSIFICATION_TYPE":"U","RCS_SIZE":"LARGE","OBJECT_NAME":"STARLINK-2712","REV_AT_EPOCH":"11579","BSTAR":"0.00098090000000","INCLINATION":"53.0528","DECAY_DATE":null,"PERIAPSIS":"546.385","ARG_OF_PERICENTER":"70.0039","LAUNCH_DATE":"2021-05-26","MEAN_ANOMALY":"290.1068","ELEMENT_SET_NO":"999","MEAN_MOTION_DDOT":"0.0000000000000","RA_OF_ASC_NODE":"228.0217","GP_ID":"234542432","NORAD_CAT_ID":"48674","TLE_LINE1":"1 48674U 21044AN  23176.44240548  .00014368  00000-0  98090-3 0  9991","OBJECT_ID":"2021-044AN","FILE":"3942352","SEMIMAJOR_AXIS":"6925.277","TIME_SYSTEM":"UTC"},{"CLASSIFICATION_TYPE":"U","RCS_SIZE":"LARGE","REV_AT_EPOCH":"11573","OBJECT_NAME":"STARLINK-2737","INCLINATION":"53.0524","BSTAR":"0.00101130000000","APOAPSIS":"547.801","TLE_LINE2":"2 48675  53.0524 228.0430 0000926  84.0402 276.0692 15.06417599115731","OBJECT_TYPE":"PAYLOAD","MEAN_ELEMENT_THEORY":"SGP4","EPOCH":"2023-06-25T10:33:07.272864","EPHEMERIS_TYPE":"0","MEAN_MOTION":"15.06417599","SITE":"AFETR","ECCENTRICITY":"0.00009260","COUNTRY_CODE":"US","PERIOD":"95.591","REF_FRAME":"TEME","MEAN_MOTION_DOT":"0.00014821","CENTER_NAME":"EARTH","GP_ID":"234548943","NORAD_CAT_ID":"48675","TLE_LINE1":"1 48675U 21044AP  23176.43966751  .00014821  00000-0  10113-2 0  9995","FILE":"3942622","OBJECT_ID":"2021-044AP","TIME_SYSTEM":"UTC","SEMIMAJOR_AXIS":"6925.295","LAUNCH_DATE":"2021-05-26","ARG_OF_PERICENTER":"84.0402","DECAY_DATE":null,"PERIAPSIS":"546.518","MEAN_ANOMALY":"276.0692","MEAN_MOTION_DDOT":"0.0000000000000","ELEMENT_SET_NO":"999","RA_OF_ASC_NODE":"228.0430"},{"TLE_LINE1":"1 48676U 21044AQ  23176.56867466  .00014120  00000-0  96440-3 0  9993","GP_ID":"234549286","NORAD_CAT_ID":"48676","SEMIMAJOR_AXIS":"6925.284","TIME_SYSTEM":"UTC","OBJECT_ID":"2021-044AQ","FILE":"3942622","MEAN_ANOMALY":"284.2592","PERIAPSIS":"546.524","DECAY_DATE":null,"ARG_OF_PERICENTER":"75.8498","LAUNCH_DATE":"2021-05-26","RA_OF_ASC_NODE":"227.4681","ELEMENT_SET_NO":"999","MEAN_MOTION_DDOT":"0.0000000000000","RCS_SIZE":"LARGE","CLASSIFICATION_TYPE":"U","INCLINATION":"53.0535","BSTAR":"0.00096440000000","OBJECT_NAME":"STARLINK-2746","REV_AT_EPOCH":"11581","EPOCH":"2023-06-25T13:38:53.490624","MEAN_ELEMENT_THEORY":"SGP4","OBJECT_TYPE":"PAYLOAD","TLE_LINE2":"2 48676  53.0535 227.4681 0000903  75.8498 284.2592 15.06420995115816","APOAPSIS":"547.775","CENTER_NAME":"EARTH","MEAN_MOTION_DOT":"0.00014120","REF_FRAME":"TEME","PERIOD":"95.591","COUNTRY_CODE":"US","SITE":"AFETR","ECCENTRICITY":"0.00009030","MEAN_MOTION":"15.06420995","EPHEMERIS_TYPE":"0"},{"RCS_SIZE":"LARGE","CLASSIFICATION_TYPE":"U","INCLINATION":"53.0534","BSTAR":"0.00102850000000","OBJECT_NAME":"STARLINK-2719","REV_AT_EPOCH":"11573","EPOCH":"2023-06-25T10:21:08.432640","MEAN_ELEMENT_THEORY":"SGP4","APOAPSIS":"548.080","TLE_LINE2":"2 48677  53.0534 228.0711 0001334  87.7174 272.3967 15.06418769115730","OBJECT_TYPE":"PAYLOAD","MEAN_MOTION_DOT":"0.00015079","REF_FRAME":"TEME","PERIOD":"95.591","CENTER_NAME":"EARTH","MEAN_MOTION":"15.06418769","EPHEMERIS_TYPE":"0","COUNTRY_CODE":"US","SITE":"AFETR","ECCENTRICITY":"0.00013340","TLE_LINE1":"1 48677U 21044AR  23176.43134760  .00015079  00000-0  10285-2 0  9990","NORAD_CAT_ID":"48677","GP_ID":"234546407","TIME_SYSTEM":"UTC","SEMIMAJOR_AXIS":"6925.291","FILE":"3942503","OBJECT_ID":"2021-044AR","MEAN_ANOMALY":"272.3967","LAUNCH_DATE":"2021-05-26","PERIAPSIS":"546.232","DECAY_DATE":null,"ARG_OF_PERICENTER":"87.7174","RA_OF_ASC_NODE":"228.0711","MEAN_MOTION_DDOT":"0.0000000000000","ELEMENT_SET_NO":"999"},{"MEAN_ANOMALY":"276.8878","LAUNCH_DATE":"2021-05-26","PERIAPSIS":"546.251","DECAY_DATE":null,"ARG_OF_PERICENTER":"83.2262","RA_OF_ASC_NODE":"228.0953","MEAN_MOTION_DDOT":"0.0000000000000","ELEMENT_SET_NO":"999","TLE_LINE1":"1 48678U 21044AS  23176.42861109  .00013068  00000-0  89425-3 0  9993","NORAD_CAT_ID":"48678","GP_ID":"234542592","TIME_SYSTEM":"UTC","SEMIMAJOR_AXIS":"6925.305","FILE":"3942369","OBJECT_ID":"2021-044AS","EPOCH":"2023-06-25T10:17:11.998176","MEAN_ELEMENT_THEORY":"SGP4","APOAPSIS":"548.089","TLE_LINE2":"2 48678  53.0543 228.0953 0001327  83.2262 276.8878 15.06414352115734","OBJECT_TYPE":"PAYLOAD","REF_FRAME":"TEME","MEAN_MOTION_DOT":"0.00013068","PERIOD":"95.591","CENTER_NAME":"EARTH","MEAN_MOTION":"15.06414352","EPHEMERIS_TYPE":"0","COUNTRY_CODE":"US","ECCENTRICITY":"0.00013270","SITE":"AFETR","RCS_SIZE":"LARGE","CLASSIFICATION_TYPE":"U","BSTAR":"0.00089425000000","INCLINATION":"53.0543","OBJECT_NAME":"STARLINK-2615","REV_AT_EPOCH":"11573"},{"OBJECT_ID":"2021-044AT","FILE":"3942637","SEMIMAJOR_AXIS":"6925.270","TIME_SYSTEM":"UTC","GP_ID":"234549865","NORAD_CAT_ID":"48679","TLE_LINE1":"1 48679U 21044AT  23176.42492303  .00010356  00000-0  71260-3 0  9995","ELEMENT_SET_NO":"999","MEAN_MOTION_DDOT":"0.0000000000000","RA_OF_ASC_NODE":"228.1091","ARG_OF_PERICENTER":"86.5476","DECAY_DATE":null,"PERIAPSIS":"546.153","LAUNCH_DATE":"2021-05-26","MEAN_ANOMALY":"273.5675","REV_AT_EPOCH":"11573","OBJECT_NAME":"STARLINK-2648","BSTAR":"0.00071260000000","INCLINATION":"53.0532","CLASSIFICATION_TYPE":"U","RCS_SIZE":"LARGE","SITE":"AFETR","ECCENTRICITY":"0.00014180","COUNTRY_CODE":"US","EPHEMERIS_TYPE":"0","MEAN_MOTION":"15.06425530","CENTER_NAME":"EARTH","PERIOD":"95.591","REF_FRAME":"TEME","MEAN_MOTION_DOT":"0.00010356","TLE_LINE2":"2 48679  53.0532 228.1091 0001418  86.5476 273.5675 15.06425530115730","OBJECT_TYPE":"PAYLOAD","APOAPSIS":"548.117","MEAN_ELEMENT_THEORY":"SGP4","EPOCH":"2023-06-25T10:11:53.349792"},{"EPHEMERIS_TYPE":"0","MEAN_MOTION":"15.06417376","ECCENTRICITY":"0.00012830","SITE":"AFETR","COUNTRY_CODE":"US","PERIOD":"95.591","REF_FRAME":"TEME","MEAN_MOTION_DOT":"0.00012247","CENTER_NAME":"EARTH","APOAPSIS":"548.049","OBJECT_TYPE":"PAYLOAD","TLE_LINE2":"2 48680  53.0527 228.1295 0001283  82.5866 277.5269 15.06417376115799","MEAN_ELEMENT_THEORY":"SGP4","EPOCH":"2023-06-25T10:06:35.087616","REV_AT_EPOCH":"11579","OBJECT_NAME":"STARLINK-2649","INCLINATION":"53.0527","BSTAR":"0.00083928000000","CLASSIFICATION_TYPE":"U","RCS_SIZE":"LARGE","MEAN_MOTION_DDOT":"0.0000000000000","ELEMENT_SET_NO":"999","RA_OF_ASC_NODE":"228.1295","LAUNCH_DATE":"2021-05-26","ARG_OF_PERICENTER":"82.5866","PERIAPSIS":"546.272","DECAY_DATE":null,"MEAN_ANOMALY":"277.5269","FILE":"3942373","OBJECT_ID":"2021-044AU","TIME_SYSTEM":"UTC","SEMIMAJOR_AXIS":"6925.295","GP_ID":"234543143","NORAD_CAT_ID":"48680","TLE_LINE1":"1 48680U 21044AU  23176.42123944  .00012247  00000-0  83928-3 0  9994"}];
